---
title: "CK07N030 2009 01 07.4298 1.220470 0.998894 136.6077 338.2806 178.3758 20150627 6.5 4.0 : C/2007 N3 - Venzha Christ Solo Exhibition"
date: "2015-08-07T00:00:00+08:00"
draft: false
section: "archive"
tags: []
---

